#cP2015  1 23  0  0  0.00000000      96 ORBIT IGb08 HLM  IGS
## 1828 432000.00000000   900.00000000 57045 0.0000000000000
+   31   G01G02G03G04G05G06G07G08G09G10G11G12G13G14G15G16G17
+        G18G19G20G21G22G23G24G25G27G28G29G30G31G32  0  0  0
+          0  0  0  0  0  0  0  0  0  0  0  0  0  0  0  0  0
+          0  0  0  0  0  0  0  0  0  0  0  0  0  0  0  0  0
+          0  0  0  0  0  0  0  0  0  0  0  0  0  0  0  0  0
++         2  2  2  2  2  2  2  3  2  2  2  2  2  2  2  2  2
++         2  2  2  2  2  2  2  2  2  2  2  3  2  2  0  0  0
++         0  0  0  0  0  0  0  0  0  0  0  0  0  0  0  0  0
++         0  0  0  0  0  0  0  0  0  0  0  0  0  0  0  0  0
++         0  0  0  0  0  0  0  0  0  0  0  0  0  0  0  0  0
%c G  cc GPS ccc cccc cccc cccc cccc ccccc ccccc ccccc ccccc
%c cc cc ccc ccc cccc cccc cccc cccc ccccc ccccc ccccc ccccc
%f  1.2500000  1.025000000  0.00000000000  0.000000000000000
%f  0.0000000  0.000000000  0.00000000000  0.000000000000000
%i    0    0    0    0      0      0      0      0         0
%i    0    0    0    0      0      0      0      0         0
/* FINAL ORBIT COMBINATION FROM WEIGHTED AVERAGE OF:        
/* cod emr esa gfz grg jpl mit ngs sio                      
/* REFERENCED TO IGS TIME (IGST) AND TO WEIGHTED MEAN POLE: 
/* PCV:IGS08_1822 OL/AL:FES2004  NONE     Y  ORB:CMB CLK:CMB
*  2015  1 23  5 15  0.00000000
PG01  13604.650994 -22286.803839   4295.881205     -9.875300  7  8  5  98       
PG02 -16811.482237   2407.467263 -19970.573870    543.495623  5  8  6 111       
PG03  16515.955147 -13048.206319 -16224.341344    165.807376  8  7  6 103       
PG04  17023.902296 -15332.060854  12897.642294     -6.055432  7  4  4 106       
PG05 -26553.116975   2315.190763   -583.890132   -289.146542  7  8  6 114       
PG06 -10434.906904 -12471.747478 -21012.673284     59.451420  8  3  7 118       
PG07   5603.190169 -24455.002303   8247.332896    433.930186  8  9  7 102       
PG08  16804.477273  -2463.784830 -19995.859292 999999.999999
PG09  -4139.141848 -22331.044058 -13771.104508    -63.676405  6  7  6 114       
PG10 -18440.585515 -10525.339440 -16589.255416   -160.004172  8  9  4 122       
PG11  11942.444532 -19735.785426  12519.165804   -552.758954  4  4  5  89       
PG12 -19312.836069  10693.549735 -14685.248881    263.508630  5 10  7 116       
PG13 -17354.608455  -3900.329545  19532.881408    -81.359781  6  5  5 118       
PG14  15383.116195  21517.499463  -2939.663164     94.263626  7 11  4  88       
PG15 -11885.566179  10349.462941  21286.618063   -227.957286  7  4  3  80       
PG16  26756.995951   -542.442117   -562.463855   -162.682236  5  6  4 102       
PG17 -14863.315613 -22142.176880   -593.618111   -151.566224  6  7  7  96       
PG18   4095.944577  15801.613751  21445.637481    374.237687  6  6  5  69       
PG19  14795.237204  -4041.603173  21553.836055   -497.721594  7  5  3  98       
PG20   -155.762627 -16183.610373 -21264.303618    281.663294  6  6  8 112       
PG21    246.856507  23329.071111  12984.443988   -408.591244  6  9  5 104       
PG22  17228.246627  11146.709700  17169.438790    310.268940  5  3  2 116       
PG23   5729.486101 -16467.587317 -19782.836672    -83.640482  8  5  7 113       
PG24 -14771.946379  20702.562537   7384.501754    -42.250967  8  9  4 108       
PG25  -6245.813805  14920.701390 -21115.807166      1.420441  6  6  3  96       
PG27  19105.681909   5805.213822  17548.199774     46.240028  3  6  5 114       
PG28 -12024.216786 -13099.991555  20388.921487    414.372078  6  6  7 107       
PG29    528.868612  21179.707066 -16009.328171    587.613050  7 11  8 118       
PG30  -2210.889171 -20463.609667  16758.559062 999999.999999
PG31  11662.146928   9508.396921 -21713.936910    324.898107  6  8  6 120       
PG32  25058.587860  -4837.568767  -6235.460546   -241.221463  5  5  4  94       
*  2015  1 23  5 30  0.00000000
PG01  13583.794562 -21580.207618   7064.321797     -9.874930  6  8  5  95       
PG02 -16051.321227    112.332493 -20756.247249    543.497819  5  7  6 103       
PG03  18264.635359 -13092.361263 -14191.484450    165.828746  8  7  5  91       
PG04  16649.815521 -13693.697925  15028.054960     -6.055959  6  4  4 100       
PG05 -26372.433408   2006.755965  -3388.247153   -289.141734  7  7  6 117       
PG06  -9462.606135 -14610.804022 -20074.726869     59.461536  8  3  7 123       
PG07   6137.566714 -25072.511747   5495.718231    433.933201  8 10  7  90       
PG08  15678.929253   -337.313674 -21075.345947 999999.999999
PG09  -2952.650257 -21105.662505 -15853.617103    -63.687165  7  7  6  91       
PG10 -16554.252101 -10906.448727 -18248.664726   -160.004789  8  8  3 114       
PG11  12200.595712 -18066.583856  14555.562057   -552.761527  4  4  5  89       
PG12 -20859.285899  10676.025770 -12370.571555    263.511383  5 10  7 122       
PG13 -18379.662105  -5827.952198  18060.753234    -81.362804  6  6  6 118       
PG14  15301.807514  21805.725736    -85.704701     94.260319  7 11  5  97       
PG15 -13464.680411   8465.694815  21207.640601   -227.959263  7  5  3  74       
PG16  26547.641407   -384.359508  -3440.136112   -162.679319  4  6  5  98       
PG17 -14655.931697 -22208.778582   2267.609003   -151.568556  6  7  8  99       
PG18   1749.626837  16140.173912  21486.406250    374.240138  6  7  5  59       
PG19  16072.277774  -1937.558570  20967.687649   -497.722785  6  5  3  98       
PG20   2188.370128 -16596.498805 -20817.310725    281.666686  6  7  7 103       
PG21   -496.629870  24407.950855  10624.857022   -408.594435  6 10  5 107       
PG22  15257.551915  11617.195435  18660.011981    310.272177  5  3  3 111       
PG23   7241.464627 -14655.005024 -20723.415810    -83.642890  7  4  7  95       
PG24 -14641.076084  19675.955607   9995.954797    -42.251322  7  9  5  96       
PG25  -8576.818702  15148.272338 -20093.915416      1.418193  5  5  3  90       
PG27  20144.114334   7402.836583  15696.381983     46.242366  2  6  5 109       
PG28  -9772.787815 -13288.219654  21466.818895    414.374578  6  6  7 109       
PG29   -680.695543  19658.865709 -17832.260988    587.615322  7 11  8 121       
PG30  -1227.709134 -21992.996876  14804.554362 999999.999999
PG31  10585.240101  11746.158610 -21137.221937    324.897609  5  8  7 109       
PG32  25637.164206  -4534.463562  -3449.925155   -241.213552  4  5  3  82       
*  2015  1 23  5 45  0.00000000
PG01  13496.598933 -20583.243846   9709.792981     -9.874593  6  8  5  98       
PG02 -15381.386796  -2278.344430 -21171.533078    543.499641  6  6  6 122       
PG03  19769.063680 -13181.518063 -11914.892067    165.850076  8  7  5  81       
PG04  16281.884320 -11821.902236  16891.467207     -6.056168  6  4  3 112       
PG05 -25901.092583   1629.925701  -6134.972261   -289.137102  6  6  6 117       
PG06  -8644.695742 -16678.959226 -18791.762262     59.471681  8  4  7 114       
PG07   6527.227849 -25418.227874   2647.708386    433.936082  7  9  8 110       
PG08  14630.885264   1936.607060 -21780.088004 999999.999999
PG09  -1560.127970 -19776.976773 -17663.339159    -63.697965  7  6  6 112       
PG10 -14524.194834 -11411.874297 -19607.256357   -160.007205  8  8  3 107       
PG11  12525.619452 -16189.663027  16331.389368   -552.764071  4  4  5  91       
PG12 -22132.763246  10704.512070  -9841.497324    263.514441  5  9  7 118       
PG13 -19401.511036  -7544.093430  16272.839032    -81.366422  6  7  5 123       
PG14  15045.981142  21837.475535   2769.738129     94.257459  7 11  6 101       
PG15 -15109.368268   6683.517676  20761.634275   -227.961130  7  5  3  97       
PG16  26030.012451   -173.685128  -6259.991785   -162.676733  4  6  5 106       
PG17 -14256.010299 -22034.314928   5090.463969   -151.570838  6  8  8  93       
PG18   -566.388127  16587.809710  21172.449411    374.242649  6  8  6  64       
PG19  17406.341498     20.219418  20017.869760   -497.724147  6  5  4  99       
PG20   4444.484388 -17102.079962 -20018.217549    281.670413  6  8  7 104       
PG21  -1106.585944  25263.224352   8083.792237   -408.599105  6 10  5  96       
PG22  13165.187210  12208.922084  19836.504976    310.275608  5  2  3 117       
PG23   8894.855662 -12856.239639 -21300.674047    -83.645072  7  5  7 108       
PG24 -14471.889580  18372.312668  12433.893104    -42.251650  7  8  5  86       
PG25 -10760.772644  15477.523915 -18727.255927      1.415955  5  5  2 101       
PG27  21118.285623   8772.891669  13575.307977     46.244716  1  6  5 111       
PG28  -7438.474830 -13618.803096  22195.854689    414.376785  6  6  7 105       
PG29  -2086.785717  18055.430507 -19347.990320    587.617433  6 10  8 128       
PG30   -418.638741 -23354.984096  12595.195371 999999.999999
PG31   9660.691375  13959.848839 -20190.040677    324.896805  5  8  7 124       
PG32  25909.277867  -4225.962958   -602.980879   -241.205567  3  4  2  89       
EOF
